SWARM A                 
1 39452U 13067B   26169.70366367  .00008494  00000+0  14578-3 0  9994
2 39452  87.3319  55.6781 0003019  95.8628 264.2977 15.50978913706489
SWARM C                 
1 39453U 13067C   26169.70355200  .00008396  00000+0  14409-3 0  9993
2 39453  87.3318  54.2594 0003017  96.1169 264.0435 15.50977228706449
BRITE-CA1 (TORONTO)     
1 40020U 14033L   26169.60050782  .00000571  00000+0  93677-4 0  9997
2 40020  97.9742 298.5023 0077213 272.4058  86.8311 14.72678402642429
OCO 2                   
1 40059U 14035A   26169.66621187  .00000316  00000+0  80105-4 0  9999
2 40059  98.2017 110.9367 0001505  84.8672 275.2698 14.57112281636264
BRITE-PL2 (HEWELIUSZ)   
1 40119U 14049B   26169.57828691  .00001593  00000+0  15241-3 0  9996
2 40119  97.9099 281.5889 0015325 104.3589 255.9333 14.94597585641656
MMS 1                   
1 40482U 15011A   26169.75002315 -.00000693  00000+0  00000+0 0  9990
2 40482  72.1847 348.7629 8322632 167.4824  97.8732  0.28347882  1386
MMS 2                   
1 40483U 15011B   26169.75002315 -.00000693  00000+0  00000+0 0  9991
2 40483  72.1849 348.7651 8323417 167.4880  97.8620  0.28347898  1381
MMS 3                   
1 40484U 15011C   26169.75002315 -.00000693  00000+0  00000+0 0  9992
2 40484  72.1878 348.7697 8322947 167.4828  97.8487  0.28348054  1389
MMS 4                   
1 40485U 15011D   26169.75002315 -.00000693  00000+0  00000+0 0  9993
2 40485  72.1872 348.7640 8322298 167.4904  97.8459  0.28348104  1381
ASTROSAT                
1 40930U 15052A   26169.16786421  .00001390  00000+0  87537-4 0  9994
2 40930   5.9954 148.2888 0007721  46.0722 314.0042 14.82508881579973
DAMPE                   
1 41173U 15078A   26169.73723954  .00001085  00000+0  38988-4 0  9994
2 41173  97.4552 175.2119 0013796  72.1834 288.0910 15.30788680584783
PISAT                   
1 41784U 16059B   26168.96139996  .00000656  00000+0  11936-3 0  9999
2 41784  97.8178 169.3809 0028443 200.2325 159.7756 14.68984509519859
HXMT (HUIYAN)           
1 42758U 17034A   26169.71302973  .00002097  00000+0  11034-3 0  9996
2 42758  43.0125 174.5445 0030777 157.0111 203.2122 15.18484166497896
FLYING LAPTOP           
1 42831U 17042G   26169.71864755  .00002941  00000+0  23309-3 0  9994
2 42831  97.4694 325.1921 0019604 116.6188 243.7048 15.01154582486685
ZHANGHENG 1-01 (CSES-1) 
1 43194U 18015C   26169.71809098  .00005365  00000+0  24559-3 0  9998
2 43194  97.6876 335.4054 0017068 260.5971  99.3335 15.20827170464876
SALSAT                  
1 46495U 20068K   26169.45370448  .00006100  00000+0  21401-3 0  9990
2 46495  97.8850 172.5954 0007987 302.8690  57.1780 15.29814902315557
IXPE                    
1 49954U 21121A   26169.75002315  .00009554  00000+0  51140-3 0  9991
2 49954   0.2304 305.7774 0007381 104.0573  91.0035 15.10262812  5803
SMILE                   
1 69123U 26109A   26158.38327019 -.00000041  00000+0 -36778-3 0  9994
2 69123  69.9787 209.3069 3310191 288.5544  45.7342  7.54049028  2480
