OBJECT_NAME,OBJECT_ID,EPOCH,MEAN_MOTION,ECCENTRICITY,INCLINATION,RA_OF_ASC_NODE,ARG_OF_PERICENTER,MEAN_ANOMALY,EPHEMERIS_TYPE,CLASSIFICATION_TYPE,NORAD_CAT_ID,ELEMENT_SET_NO,REV_AT_EPOCH,BSTAR,MEAN_MOTION_DOT,MEAN_MOTION_DDOT
SWARM A,2013-067B,2026-06-18T16:53:16.541088,15.50978913,.0003019,87.3319,55.6781,95.8628,264.2977,0,U,39452,999,70648,.14578E-3,.8494E-4,0
SWARM C,2013-067C,2026-06-18T16:53:06.892800,15.50977228,.0003017,87.3318,54.2594,96.1169,264.0435,0,U,39453,999,70644,.14409E-3,.8396E-4,0
BRITE-CA1 (TORONTO),2014-033L,2026-06-18T14:24:43.875648,14.72678402,.0077213,97.9742,298.5023,272.4058,86.8311,0,U,40020,999,64242,.93677E-4,.571E-5,0
OCO 2,2014-035A,2026-06-18T15:59:20.705568,14.57112281,.0001505,98.2017,110.9367,84.8672,275.2698,0,U,40059,999,63626,.80105E-4,.316E-5,0
BRITE-PL2 (HEWELIUSZ),2014-049B,2026-06-18T13:52:43.989024,14.94597585,.0015325,97.9099,281.5889,104.3589,255.9333,0,U,40119,999,64165,.15241E-3,.1593E-4,0
MMS 1,2015-011A,2026-06-18T18:00:02.000160,0.28347882,.8322632,72.1847,348.7629,167.4824,97.8732,0,U,40482,999,138,0,-.693E-5,0
MMS 2,2015-011B,2026-06-18T18:00:02.000160,0.28347898,.8323417,72.1849,348.7651,167.4880,97.8620,0,U,40483,999,138,0,-.693E-5,0
MMS 3,2015-011C,2026-06-18T18:00:02.000160,0.28348054,.8322947,72.1878,348.7697,167.4828,97.8487,0,U,40484,999,138,0,-.693E-5,0
MMS 4,2015-011D,2026-06-18T18:00:02.000160,0.28348104,.8322298,72.1872,348.7640,167.4904,97.8459,0,U,40485,999,138,0,-.693E-5,0
ASTROSAT,2015-052A,2026-06-18T04:01:43.467744,14.82508881,.00077217,5.9954,148.2888,46.0722,314.0042,0,U,40930,999,57997,.87537357E-4,.139E-4,0
DAMPE,2015-078A,2026-06-18T17:41:37.496256,15.30788680,.0013796,97.4552,175.2119,72.1834,288.0910,0,U,41173,999,58478,.38988E-4,.1085E-4,0
PISAT,2016-059B,2026-06-17T23:04:24.956544,14.68984509,.00284433,97.8178,169.3809,200.2325,159.7756,0,U,41784,999,51985,.11935816E-3,.656E-5,0
HXMT (HUIYAN),2017-034A,2026-06-18T17:06:45.768672,15.18484166,.0030777,43.0125,174.5445,157.0111,203.2122,0,U,42758,999,49789,.11034E-3,.2097E-4,0
FLYING LAPTOP,2017-042G,2026-06-18T17:14:51.148320,15.01154582,.0019604,97.4694,325.1921,116.6188,243.7048,0,U,42831,999,48668,.23309E-3,.2941E-4,0
ZHANGHENG 1-01 (CSES-1),2018-015C,2026-06-18T17:14:03.060672,15.20827170,.0017068,97.6876,335.4054,260.5971,99.3335,0,U,43194,999,46487,.24559E-3,.5365E-4,0
SALSAT,2020-068K,2026-06-18T10:53:20.067072,15.29814902,.0007987,97.8850,172.5954,302.8690,57.1780,0,U,46495,999,31555,.21401E-3,.61E-4,0
IXPE,2021-121A,2026-06-18T18:00:02.000160,15.10262812,.0007381,0.2304,305.7774,104.0573,91.0035,0,U,49954,999,580,.5114E-3,.9554E-4,0
SMILE,2026-109A,2026-06-07T09:11:54.544416,7.54049028,.3310191,69.9787,209.3069,288.5544,45.7342,0,U,69123,999,248,-.36778157E-3,-.41E-6,0
